STARLINK-11426 [DTC]    
1 62058U 24217B   26157.80461687  .00316522  00000+0  24899-2 0  9990
2 62058  53.1576 351.6923 0001700 180.6082 179.4934 15.69991087 89113
STARLINK-11454 [DTC]    
1 62059U 24217C   26157.90262997  .00173168  00000+0  14068-2 0  9999
2 62059  53.1557 351.5990 0001267  17.7677 342.3385 15.69671891 89180
STARLINK-11473 [DTC]    
1 62060U 24217D   26157.27574354  .00303421  00000+0  24044-2 0  9996
2 62060  53.1569 354.8049 0000767  74.1760 285.9343 15.69854306 89089
STARLINK-11429 [DTC]    
1 62061U 24217E   26157.89772436  .00258097  00000+0  20720-2 0  9991
2 62061  53.1570 351.5685 0001271  44.1272 315.9847 15.69682220 89186
STARLINK-11470 [DTC]    
1 62062U 24217F   26157.82914323  .00058949  00000+0  48833-3 0  9998
2 62062  53.1571 351.8469 0000646 120.5156 239.5926 15.69692358 89111
STARLINK-11427 [DTC]    
1 62063U 24217G   26157.84386163  .00190731  00000+0  15376-2 0  9997
2 62063  53.1571 351.9464 0000609 149.4790 210.6264 15.69797508 89175
STARLINK-11456 [DTC]    
1 62064U 24217H   26157.81443010  .00230666  00000+0  18406-2 0  9999
2 62064  53.1573 351.7521 0001390 151.2666 208.8428 15.69915074 89172
STARLINK-11474 [DTC]    
1 62065U 24217J   26157.86338079  .00177449  00000+0  14354-2 0  9990
2 62065  53.1579 351.3382 0000830 213.3693 146.7272 15.69759833 89185
STARLINK-11463 [DTC]    
1 62066U 24217K   26157.82423102  .00194298  00000+0  15703-2 0  9999
2 62066  53.1591 351.8183 0000917  99.2341 260.8780 15.69726496 89171
STARLINK-11472 [DTC]    
1 62067U 24217L   26157.09454429  .00191440  00000+0  15421-2 0  9998
2 62067  53.1566 355.8123 0000703  85.3017 274.8081 15.69815540 88987
STARLINK-11467 [DTC]    
1 62068U 24217M   26157.88300618  .00246539  00000+0  19808-2 0  9999
2 62068  53.1572 351.4685 0000807  14.6851 345.4190 15.69699156 89188
STARLINK-11460 [DTC]    
1 62069U 24217N   26157.85367321  .00156623  00000+0  12698-2 0  9995
2 62069  53.1570 352.0092 0000732 154.5247 205.5807 15.69777551 89116
STARLINK-32604          
1 62070U 24217P   26157.49518875  .00035133  00000+0  10460-2 0  9996
2 62070  53.1609 141.0000 0001279  86.0717 274.0432 15.34401722 87023
STARLINK-32553          
1 62071U 24217Q   26157.24095263  .00039192  00000+0  11643-2 0  9994
2 62071  53.1598 142.2554 0001349  87.2868 272.8289 15.34418895 87032
STARLINK-32603          
1 62072U 24217R   26157.91670139  .00064677  00000+0  19105-2 0  9997
2 62072  53.1585 139.2298 0001401  97.2183 327.8797 15.34373409  5867
STARLINK-32444          
1 62073U 24217S   26157.68218119  .00032240  00000+0  96084-3 0  9991
2 62073  53.1601 140.0492 0000935  84.5847 275.5262 15.34412491 87052
STARLINK-32619          
1 62074U 24217T   26157.94484947 -.00000399  00000+0 -67619-6 0  9992
2 62074  53.1593 138.8260 0001303 101.2872 258.8277 15.34361225 87098
STARLINK-32580          
1 62075U 24217U   26157.61455649  .00037250  00000+0  12630-2 0  9997
2 62075  53.1567 128.2467 0001028  94.0262 266.0856 15.30214389 87210
STARLINK-32617          
1 62076U 24217V   26157.65349190  .00039073  00000+0  13241-2 0  9999
2 62076  53.1594 127.7753 0001348  84.7442 275.3712 15.30209351 87222
STARLINK-11384 [DTC]    
1 62088U 24220A   26157.60880450  .00221270  00000+0  16785-2 0  9998
2 62088  42.9991 227.4773 0001607 256.7004 103.3684 15.70894976 89031
STARLINK-11379 [DTC]    
1 62089U 24220B   26156.00002315 -.00187039  00000+0 -14816-2 0  9997
2 62089  43.0003 237.0967 0001757 269.6102  11.7442 15.70927412  6000
STARLINK-11387 [DTC]    
1 62090U 24220C   26157.47101492 -.00002813  00000+0 -18428-4 0  9998
2 62090  43.0046 228.1559 0000745 259.0566 101.0218 15.70858414 89011
STARLINK-11389 [DTC]    
1 62091U 24220D   26157.46570896  .00205673  00000+0  15538-2 0  9990
2 62091  42.9982 228.1144 0002152 116.9762 243.1325 15.71041722 88914
STARLINK-11388 [DTC]    
1 62092U 24220E   26157.46040224  .00193787  00000+0  14670-2 0  9996
2 62092  42.9983 228.0705 0003143 292.4291  67.6243 15.71027880 88913
STARLINK-11345 [DTC]    
1 62093U 24220F   26156.50135488  .00151555  00000+0  11579-2 0  9990
2 62093  42.9982 233.7756 0000795 248.2725 111.8058 15.70948702 88766
STARLINK-11381 [DTC]    
1 62094U 24220G   26157.25903471  .00108453  00000+0  83703-3 0  9997
2 62094  42.9996 229.1337 0000694 273.3260  86.7528 15.70859493 88880
STARLINK-11369 [DTC]    
1 62095U 24220H   26157.31730309  .00212332  00000+0  16177-2 0  9995
2 62095  42.9994 228.7062 0001894 227.7248 132.3459 15.70819759 88995
STARLINK-11303 [DTC]    
1 62096U 24220J   26156.48542519  .00208206  00000+0  15870-2 0  9991
2 62096  42.9993 233.6434 0001261 214.9029 145.1756 15.70820953 88862
STARLINK-11367 [DTC]    
1 62097U 24220K   26157.49743574  .00258964  00000+0  19210-2 0  9996
2 62097  42.9980 227.4715 0003567 237.4339 122.6185 15.71308912 89029
