OBJECT_NAME,OBJECT_ID,EPOCH,MEAN_MOTION,ECCENTRICITY,INCLINATION,RA_OF_ASC_NODE,ARG_OF_PERICENTER,MEAN_ANOMALY,EPHEMERIS_TYPE,CLASSIFICATION_TYPE,NORAD_CAT_ID,ELEMENT_SET_NO,REV_AT_EPOCH,BSTAR,MEAN_MOTION_DOT,MEAN_MOTION_DDOT
STARLINK-11426 [DTC],2024-217B,2026-06-06T19:18:38.897568,15.69991087,.00017007,53.1576,351.6923,180.6082,179.4934,0,U,62058,999,8911,.24899179E-2,.316522E-2,0
STARLINK-11454 [DTC],2024-217C,2026-06-06T21:39:47.229408,15.69671891,.00012675,53.1557,351.5990,17.7677,342.3385,0,U,62059,999,8918,.14067743E-2,.173168E-2,0
STARLINK-11473 [DTC],2024-217D,2026-06-06T06:37:04.241856,15.69854306,.00007672,53.1569,354.8049,74.1760,285.9343,0,U,62060,999,8908,.24043681E-2,.303421E-2,0
STARLINK-11429 [DTC],2024-217E,2026-06-06T21:32:43.384704,15.69682220,.00012715,53.1570,351.5685,44.1272,315.9847,0,U,62061,999,8918,.20719876E-2,.258097E-2,0
STARLINK-11470 [DTC],2024-217F,2026-06-06T19:53:57.975072,15.69692358,.00006465,53.1571,351.8469,120.5156,239.5926,0,U,62062,999,8911,.48832875E-3,.58949E-3,0
STARLINK-11427 [DTC],2024-217G,2026-06-06T20:15:09.644832,15.69797508,.00006092,53.1571,351.9464,149.4790,210.6264,0,U,62063,999,8917,.1537641E-2,.190731E-2,0
STARLINK-11456 [DTC],2024-217H,2026-06-06T19:32:46.760640,15.69915074,.000139,53.1573,351.7521,151.2666,208.8428,0,U,62064,999,8917,.1840636E-2,.230666E-2,0
STARLINK-11474 [DTC],2024-217J,2026-06-06T20:43:16.100256,15.69759833,.00008306,53.1579,351.3382,213.3693,146.7272,0,U,62065,999,8918,.1435448E-2,.177449E-2,0
STARLINK-11463 [DTC],2024-217K,2026-06-06T19:46:53.560128,15.69726496,.00009179,53.1591,351.8183,99.2341,260.8780,0,U,62066,999,8917,.15702549E-2,.194298E-2,0
STARLINK-11472 [DTC],2024-217L,2026-06-06T02:16:08.626656,15.69815540,.0000703,53.1566,355.8123,85.3017,274.8081,0,U,62067,999,8898,.15421E-2,.19144E-2,0
STARLINK-11467 [DTC],2024-217M,2026-06-06T21:11:31.733952,15.69699156,.00008074,53.1572,351.4685,14.6851,345.4190,0,U,62068,999,8918,.19807818E-2,.246539E-2,0
STARLINK-11460 [DTC],2024-217N,2026-06-06T20:29:17.365344,15.69777551,.00007323,53.1570,352.0092,154.5247,205.5807,0,U,62069,999,8911,.1269808E-2,.156623E-2,0
STARLINK-32604,2024-217P,2026-06-06T11:53:04.308000,15.34401722,.00012795,53.1609,141.0000,86.0717,274.0432,0,U,62070,999,8702,.1046023E-2,.35133E-3,0
STARLINK-32553,2024-217Q,2026-06-06T05:46:58.307232,15.34418895,.0001349,53.1598,142.2554,87.2868,272.8289,0,U,62071,999,8703,.11643189E-2,.39192E-3,0
STARLINK-32603,2024-217R,2026-06-06T22:00:03.000096,15.34373409,.00014011,53.1585,139.2298,97.2183,327.8797,0,U,62072,999,586,.19105174E-2,.64677E-3,0
STARLINK-32444,2024-217S,2026-06-06T16:22:20.454816,15.34412491,.00009351,53.1601,140.0492,84.5847,275.5262,0,U,62073,999,8705,.96083875E-3,.3224E-3,0
STARLINK-32619,2024-217T,2026-06-06T22:40:34.994208,15.34361225,.00013033,53.1593,138.8260,101.2872,258.8277,0,U,62074,999,8709,-.676194E-6,-.399E-5,0
STARLINK-32580,2024-217U,2026-06-06T14:44:57.680736,15.30214389,.0001028,53.1567,128.2467,94.0262,266.0856,0,U,62075,999,8721,.1263E-2,.3725E-3,0
STARLINK-32617,2024-217V,2026-06-06T15:41:01.700160,15.30209351,.00013489,53.1594,127.7753,84.7442,275.3712,0,U,62076,999,8722,.13240525E-2,.39073E-3,0
STARLINK-11384 [DTC],2024-220A,2026-06-06T14:36:40.708800,15.70894976,.0001607,42.9991,227.4773,256.7004,103.3684,0,U,62088,999,8903,.16785E-2,.22127E-2,0
STARLINK-11379 [DTC],2024-220B,2026-06-05T00:00:02.000160,15.70927412,.0001757,43.0003,237.0967,269.6102,11.7442,0,U,62089,999,600,-.14815655E-2,-.187039E-2,0
STARLINK-11387 [DTC],2024-220C,2026-06-06T11:18:15.689088,15.70858414,.00007453,43.0046,228.1559,259.0566,101.0218,0,U,62090,999,8901,-.18427833E-4,-.2813E-4,0
STARLINK-11389 [DTC],2024-220D,2026-06-06T11:10:37.254144,15.71041722,.00021525,42.9982,228.1144,116.9762,243.1325,0,U,62091,999,8891,.15537623E-2,.205673E-2,0
STARLINK-11388 [DTC],2024-220E,2026-06-06T11:02:58.753536,15.71027880,.00031438,42.9983,228.0705,292.4291,67.6243,0,U,62092,999,8891,.14669968E-2,.193787E-2,0
STARLINK-11345 [DTC],2024-220F,2026-06-05T12:01:57.061632,15.70948702,.00007956,42.9982,233.7756,248.2725,111.8058,0,U,62093,999,8876,.11578961E-2,.151555E-2,0
STARLINK-11381 [DTC],2024-220G,2026-06-06T06:13:00.598944,15.70859493,.00006945,42.9996,229.1337,273.3260,86.7528,0,U,62094,999,8888,.83703423E-3,.108453E-2,0
STARLINK-11369 [DTC],2024-220H,2026-06-06T07:36:54.986976,15.70819759,.00018949,42.9994,228.7062,227.7248,132.3459,0,U,62095,999,8899,.16176836E-2,.212332E-2,0
STARLINK-11303 [DTC],2024-220J,2026-06-05T11:39:00.736416,15.70820953,.00012613,42.9993,233.6434,214.9029,145.1756,0,U,62096,999,8886,.15870468E-2,.208206E-2,0
STARLINK-11367 [DTC],2024-220K,2026-06-06T11:56:18.447936,15.71308912,.00035671,42.9980,227.4715,237.4339,122.6185,0,U,62097,999,8902,.19209731E-2,.258964E-2,0
